OBJECT C                
1 57582U 23117C   24232.18939895  .00023417  00000+0  11687-2 0  9997
2 57582  97.4833 303.4285 0011776  78.7307 281.5249 15.17444135 56739
